start=new Date('2022-02-08T00:00:00.000Z').valueOf();
sats=[{"RA_OF_ASC_NODE":"64.5661","RCS_SIZE":"LARGE","EPHEMERIS_TYPE":"0","PERIAPSIS":"546.035","REF_FRAME":"TEME","TIME_SYSTEM":"UTC","BSTAR":"0.00001873800000","COUNTRY_CODE":"US","OBJECT_ID":"2021-017AJ","TLE_LINE1":"1 47754U 21017AJ  22038.78258532 -.00000003  00000-0  18738-4 0  9998","MEAN_ANOMALY":"305.0394","SEMIMAJOR_AXIS":"6925.390","REV_AT_EPOCH":"5238","LAUNCH_DATE":"2021-03-04","CENTER_NAME":"EARTH","CLASSIFICATION_TYPE":"U","PERIOD":"95.593","MEAN_MOTION":"15.06386583","ARG_OF_PERICENTER":"55.0760","TLE_LINE2":"2 47754  53.0563  64.5661 0001761  55.0760 305.0394 15.06386583 52384","SITE":"AFETR","APOAPSIS":"548.474","OBJECT_NAME":"STARLINK-2171","MEAN_ELEMENT_THEORY":"SGP4","MEAN_MOTION_DOT":"-0.00000003","EPOCH":"2022-02-07T18:46:55.371648","FILE":"3294465","NORAD_CAT_ID":"47754","ECCENTRICITY":"0.00017610","GP_ID":"195485975","ELEMENT_SET_NO":"999","INCLINATION":"53.0563","DECAY_DATE":null,"MEAN_MOTION_DDOT":"0.0000000000000","OBJECT_TYPE":"PAYLOAD"},{"MEAN_MOTION_DOT":"0.00206128","FILE":"3293597","EPOCH":"2022-02-06T12:50:45.517920","NORAD_CAT_ID":"47755","ECCENTRICITY":"0.00018000","ELEMENT_SET_NO":"999","GP_ID":"195417025","INCLINATION":"53.0538","DECAY_DATE":null,"MEAN_MOTION_DDOT":"0.0000000000000","OBJECT_TYPE":"PAYLOAD","PERIOD":"93.164","MEAN_MOTION":"15.45657678","ARG_OF_PERICENTER":"39.5072","TLE_LINE2":"2 47755  53.0538  54.1804 0001800  39.5072 320.6065 15.45657678 52420","SITE":"AFETR","APOAPSIS":"430.674","OBJECT_NAME":"STARLINK-2172","MEAN_ELEMENT_THEORY":"SGP4","COUNTRY_CODE":"US","BSTAR":"0.00410480000000","OBJECT_ID":"2021-017AK","TLE_LINE1":"1 47755U 21017AK  22037.53524905  .00206128  00000-0  41048-2 0  9994","MEAN_ANOMALY":"320.6065","SEMIMAJOR_AXIS":"6807.583","REV_AT_EPOCH":"5242","CENTER_NAME":"EARTH","LAUNCH_DATE":"2021-03-04","CLASSIFICATION_TYPE":"U","RA_OF_ASC_NODE":"54.1804","RCS_SIZE":"LARGE","EPHEMERIS_TYPE":"0","PERIAPSIS":"428.223","REF_FRAME":"TEME","TIME_SYSTEM":"UTC"},{"ECCENTRICITY":"0.00015690","GP_ID":"195481007","ELEMENT_SET_NO":"999","NORAD_CAT_ID":"47756","MEAN_MOTION_DOT":"0.00000485","EPOCH":"2022-02-07T12:19:28.090848","FILE":"3294379","OBJECT_TYPE":"PAYLOAD","MEAN_MOTION_DDOT":"0.0000000000000","DECAY_DATE":null,"INCLINATION":"53.0572","ARG_OF_PERICENTER":"64.5923","PERIOD":"95.593","MEAN_MOTION":"15.06382030","MEAN_ELEMENT_THEORY":"SGP4","OBJECT_NAME":"STARLINK-2174","TLE_LINE2":"2 47756  53.0572  65.7808 0001569  64.5923 295.5228 15.06382030 53028","SITE":"AFETR","APOAPSIS":"548.355","MEAN_ANOMALY":"295.5228","OBJECT_ID":"2021-017AL","COUNTRY_CODE":"US","BSTAR":"0.00005148500000","TLE_LINE1":"1 47756U 21017AL  22038.51351957  .00000485  00000-0  51485-4 0  9995","REV_AT_EPOCH":"5302","CENTER_NAME":"EARTH","LAUNCH_DATE":"2021-03-04","CLASSIFICATION_TYPE":"U","SEMIMAJOR_AXIS":"6925.404","RA_OF_ASC_NODE":"65.7808","TIME_SYSTEM":"UTC","REF_FRAME":"TEME","EPHEMERIS_TYPE":"0","PERIAPSIS":"546.182","RCS_SIZE":"LARGE"},{"FILE":"3294465","EPOCH":"2022-02-07T18:20:23.202816","MEAN_MOTION_DOT":"-0.00001025","NORAD_CAT_ID":"47757","ELEMENT_SET_NO":"999","GP_ID":"195486481","ECCENTRICITY":"0.00018500","INCLINATION":"53.0548","MEAN_MOTION_DDOT":"0.0000000000000","DECAY_DATE":null,"OBJECT_TYPE":"PAYLOAD","MEAN_MOTION":"15.06399389","PERIOD":"95.592","ARG_OF_PERICENTER":"49.0202","APOAPSIS":"548.497","TLE_LINE2":"2 47757  53.0548  64.6575 0001850  49.0202 311.0947 15.06399389 52387","SITE":"AFETR","OBJECT_NAME":"STARLINK-2175","MEAN_ELEMENT_THEORY":"SGP4","TLE_LINE1":"1 47757U 21017AM  22038.76415744 -.00001025  00000-0 -49940-4 0  9994","BSTAR":"-0.00004994000000","COUNTRY_CODE":"US","OBJECT_ID":"2021-017AM","MEAN_ANOMALY":"311.0947","SEMIMAJOR_AXIS":"6925.350","LAUNCH_DATE":"2021-03-04","CENTER_NAME":"EARTH","CLASSIFICATION_TYPE":"U","REV_AT_EPOCH":"5238","RA_OF_ASC_NODE":"64.6575","RCS_SIZE":"LARGE","PERIAPSIS":"545.934","EPHEMERIS_TYPE":"0","REF_FRAME":"TEME","TIME_SYSTEM":"UTC"},{"MEAN_ANOMALY":"310.2250","COUNTRY_CODE":"US","BSTAR":"0.00872180000000","OBJECT_ID":"2021-017AN","TLE_LINE1":"1 47758U 21017AN  22038.77586176  .00497553  00000-0  87218-2 0  9995","REV_AT_EPOCH":"5252","CLASSIFICATION_TYPE":"U","LAUNCH_DATE":"2021-03-04","CENTER_NAME":"EARTH","SEMIMAJOR_AXIS":"6800.073","RA_OF_ASC_NODE":"54.8373","EPHEMERIS_TYPE":"0","PERIAPSIS":"420.531","RCS_SIZE":"LARGE","TIME_SYSTEM":"UTC","REF_FRAME":"TEME","NORAD_CAT_ID":"47758","MEAN_MOTION_DOT":"0.00497553","EPOCH":"2022-02-07T18:37:14.456064","FILE":"3294465","ECCENTRICITY":"0.00020680","GP_ID":"195486482","ELEMENT_SET_NO":"999","MEAN_MOTION_DDOT":"0.0000000000000","DECAY_DATE":null,"INCLINATION":"53.0585","OBJECT_TYPE":"PAYLOAD","ARG_OF_PERICENTER":"49.8938","PERIOD":"93.010","MEAN_MOTION":"15.48219160","OBJECT_NAME":"STARLINK-2176","TLE_LINE2":"2 47758  53.0585  54.8373 0002068  49.8938 310.2250 15.48219160 52520","SITE":"AFETR","APOAPSIS":"423.344","MEAN_ELEMENT_THEORY":"SGP4"},{"OBJECT_TYPE":"PAYLOAD","INCLINATION":"53.0529","MEAN_MOTION_DDOT":"0.0000000000000","DECAY_DATE":null,"ECCENTRICITY":"0.00075290","GP_ID":"195486485","ELEMENT_SET_NO":"999","MEAN_MOTION_DOT":"0.00006081","EPOCH":"2022-02-07T14:33:32.302368","FILE":"3294465","NORAD_CAT_ID":"47759","MEAN_ELEMENT_THEORY":"SGP4","TLE_LINE2":"2 47759  53.0529   5.0046 0007529 274.0821  85.9340 15.82157607 53212","SITE":"AFETR","APOAPSIS":"329.388","OBJECT_NAME":"STARLINK-2177","PERIOD":"91.015","MEAN_MOTION":"15.82157607","ARG_OF_PERICENTER":"274.0821","SEMIMAJOR_AXIS":"6702.477","REV_AT_EPOCH":"5321","LAUNCH_DATE":"2021-03-04","CENTER_NAME":"EARTH","CLASSIFICATION_TYPE":"U","COUNTRY_CODE":"US","BSTAR":"0.00003241200000","OBJECT_ID":"2021-017AP","TLE_LINE1":"1 47759U 21017AP  22038.60662387  .00006081  00000-0  32412-4 0  9997","MEAN_ANOMALY":"85.9340","REF_FRAME":"TEME","TIME_SYSTEM":"UTC","RCS_SIZE":"LARGE","EPHEMERIS_TYPE":"0","PERIAPSIS":"319.296","RA_OF_ASC_NODE":"5.0046"},{"OBJECT_TYPE":"PAYLOAD","INCLINATION":"53.0568","MEAN_MOTION_DDOT":"0.0000000000000","DECAY_DATE":null,"ECCENTRICITY":"0.00017940","GP_ID":"195481507","ELEMENT_SET_NO":"999","MEAN_MOTION_DOT":"-0.00000966","EPOCH":"2022-02-07T11:09:09.528768","FILE":"3294379","NORAD_CAT_ID":"47760","MEAN_ELEMENT_THEORY":"SGP4","SITE":"AFETR","TLE_LINE2":"2 47760  53.0568  75.9891 0001794  51.3088 308.8061 15.06364833 52853","APOAPSIS":"548.564","OBJECT_NAME":"STARLINK-2178","PERIOD":"95.594","MEAN_MOTION":"15.06364833","ARG_OF_PERICENTER":"51.3088","SEMIMAJOR_AXIS":"6925.456","REV_AT_EPOCH":"5285","CLASSIFICATION_TYPE":"U","LAUNCH_DATE":"2021-03-04","CENTER_NAME":"EARTH","BSTAR":"-0.00004597300000","COUNTRY_CODE":"US","OBJECT_ID":"2021-017AQ","TLE_LINE1":"1 47760U 21017AQ  22038.46469362 -.00000966  00000-0 -45973-4 0  9995","MEAN_ANOMALY":"308.8061","REF_FRAME":"TEME","TIME_SYSTEM":"UTC","RCS_SIZE":"LARGE","EPHEMERIS_TYPE":"0","PERIAPSIS":"546.079","RA_OF_ASC_NODE":"75.9891"},{"RA_OF_ASC_NODE":"66.4528","RCS_SIZE":"LARGE","PERIAPSIS":"546.061","EPHEMERIS_TYPE":"0","REF_FRAME":"TEME","TIME_SYSTEM":"UTC","TLE_LINE1":"1 47761U 21017AR  22038.36239447 -.00000555  00000-0 -18379-4 0  9998","OBJECT_ID":"2021-017AR","COUNTRY_CODE":"US","BSTAR":"-0.00001837900000","MEAN_ANOMALY":"306.1058","SEMIMAJOR_AXIS":"6925.398","CENTER_NAME":"EARTH","LAUNCH_DATE":"2021-03-04","CLASSIFICATION_TYPE":"U","REV_AT_EPOCH":"5295","MEAN_MOTION":"15.06383801","PERIOD":"95.593","ARG_OF_PERICENTER":"54.0092","APOAPSIS":"548.465","TLE_LINE2":"2 47761  53.0554  66.4528 0001736  54.0092 306.1058 15.06383801 52956","SITE":"AFETR","OBJECT_NAME":"STARLINK-2179","MEAN_ELEMENT_THEORY":"SGP4","EPOCH":"2022-02-07T08:41:50.882208","FILE":"3294379","MEAN_MOTION_DOT":"-0.00000555","NORAD_CAT_ID":"47761","GP_ID":"195479755","ELEMENT_SET_NO":"999","ECCENTRICITY":"0.00017360","INCLINATION":"53.0554","MEAN_MOTION_DDOT":"0.0000000000000","DECAY_DATE":null,"OBJECT_TYPE":"PAYLOAD"},{"COUNTRY_CODE":"US","OBJECT_ID":"2021-017AS","BSTAR":"0.00005175700000","TLE_LINE1":"1 47762U 21017AS  22038.52040883  .00000489  00000-0  51757-4 0  9992","MEAN_ANOMALY":"304.8314","SEMIMAJOR_AXIS":"6925.413","REV_AT_EPOCH":"5278","LAUNCH_DATE":"2021-03-04","CENTER_NAME":"EARTH","CLASSIFICATION_TYPE":"U","RA_OF_ASC_NODE":"80.7474","RCS_SIZE":"LARGE","EPHEMERIS_TYPE":"0","PERIAPSIS":"546.118","REF_FRAME":"TEME","TIME_SYSTEM":"UTC","MEAN_MOTION_DOT":"0.00000489","EPOCH":"2022-02-07T12:29:23.322912","FILE":"3294379","NORAD_CAT_ID":"47762","ECCENTRICITY":"0.00016740","ELEMENT_SET_NO":"999","GP_ID":"195480505","INCLINATION":"53.0547","DECAY_DATE":null,"MEAN_MOTION_DDOT":"0.0000000000000","OBJECT_TYPE":"PAYLOAD","PERIOD":"95.593","MEAN_MOTION":"15.06379046","ARG_OF_PERICENTER":"55.2833","TLE_LINE2":"2 47762  53.0547  80.7474 0001674  55.2833 304.8314 15.06379046 52782","SITE":"AFETR","APOAPSIS":"548.437","OBJECT_NAME":"STARLINK-2180","MEAN_ELEMENT_THEORY":"SGP4"},{"SEMIMAJOR_AXIS":"6925.430","LAUNCH_DATE":"2021-03-04","CLASSIFICATION_TYPE":"U","CENTER_NAME":"EARTH","REV_AT_EPOCH":"5289","TLE_LINE1":"1 47763U 21017AT  22038.47067893 -.00001174  00000-0 -59993-4 0  9991","COUNTRY_CODE":"US","BSTAR":"-0.00005999300000","OBJECT_ID":"2021-017AT","MEAN_ANOMALY":"303.2316","REF_FRAME":"TEME","TIME_SYSTEM":"UTC","RCS_SIZE":"LARGE","PERIAPSIS":"546.066","EPHEMERIS_TYPE":"0","RA_OF_ASC_NODE":"70.9590","OBJECT_TYPE":"PAYLOAD","INCLINATION":"53.0582","DECAY_DATE":null,"MEAN_MOTION_DDOT":"0.0000000000000","ELEMENT_SET_NO":"999","GP_ID":"195480757","ECCENTRICITY":"0.00017750","FILE":"3294379","EPOCH":"2022-02-07T11:17:46.659552","MEAN_MOTION_DOT":"-0.00001174","NORAD_CAT_ID":"47763","MEAN_ELEMENT_THEORY":"SGP4","APOAPSIS":"548.524","TLE_LINE2":"2 47763  53.0582  70.9590 0001775  56.8843 303.2316 15.06373462 52895","SITE":"AFETR","OBJECT_NAME":"STARLINK-2181","MEAN_MOTION":"15.06373462","PERIOD":"95.594","ARG_OF_PERICENTER":"56.8843"}];
